SL-16 DEB
1 39882U 93016BG  20016.64517451  .00001276  00000-0  52733-3 0  9990
2 39882  70.9511 130.2306 0113691 107.6914 315.3690 14.25137509864405
SL-16 DEB
1 39883U 93016BH  20009.44955126 +.00000770 +00000-0 +35384-3 0  9997
2 39883 070.9702 298.4180 0140963 211.7483 147.5087 14.19206587177379
SL-16 DEB
1 39884U 93016BJ  20015.17425796 +.00001201 +00000-0 +53231-3 0  9991
2 39884 070.9659 209.7866 0125936 145.9748 214.9536 14.20902183776710
SL-16 DEB
1 39885U 93016BK  20013.15452314  .00001603  00000-0  50281-3 0  9992
2 39885  70.9526 195.7322 0089432 249.6794 109.4714 14.39856157301728
SL-16 DEB
1 39886U 93016BL  20015.89691072 +.00000211 +00000-0 +56696-4 0  9993
2 39886 071.0137 242.3329 0062226 122.2456 238.4741 14.58497475299025
SL-16 DEB
1 39888U 93016BN  20010.55907106 +.00000243 +00000-0 +13942-3 0  9992
2 39888 070.9639 062.0891 0110047 020.1747 340.3673 14.15825909289056
SL-16 DEB
1 39889U 93016BP  20015.03164403  .00002809  00000-0  55309-3 0  9999
2 39889  70.9183 267.4451 0060562  87.7021 273.1058 14.62317174856528
SL-16 DEB
1 39890U 93016BQ  20012.82084661 +.00001535 +00000-0 +64308-3 0  9996
2 39890 070.9679 170.6717 0119536 105.3800 256.0571 14.23755646264067
SL-16 DEB
1 39891U 93016BR  20014.47836791  .00000323  00000-0  13544-3 0  9999
2 39891  71.0006 287.9839 0013984 287.1212  72.8388 14.33217171875196
SL-16 DEB
1 39892U 93016BS  20014.85489818 +.00001269 +00000-0 +48325-3 0  9991
2 39892 070.9835 089.5007 0110491 049.6692 311.4026 14.29464122292247
SL-16 DEB
1 39893U 93016BT  20012.85907391  .00001500  00000-0  64761-3 0  9991
2 39893  70.9690 176.8077 0119384 121.5366 239.7487 14.22278531814436
SL-16 DEB
1 39896U 93016BW  20015.58185668 +.00001360 +00000-0 +52208-3 0  9999
2 39896 070.9657 107.9921 0111994 075.7081 285.6454 14.28835964291739
SL-16 DEB
1 39897U 93016BX  20011.86165064  .00001499  00000-0  62229-3 0  9992
2 39897  70.9470 202.6294 0124877 159.6929 200.9230 14.23923919508686
SL-16 DEB
1 39898U 93016BY  20011.58041512  .00003993  00000-0  60129-3 0  9991
2 39898  70.9556  82.1020 0052431 255.4163 104.1172 14.74159901815185
SL-16 DEB
1 39899U 93016BZ  20015.10462934  .00001070  00000-0  21625-3 0  9991
2 39899  70.9809 175.9724 0008719 299.9485  60.0796 14.63755107833640
SL-16 DEB
1 39900U 93016CA  20016.81280387  .00001707  00000-0  50997-3 0  9994
2 39900  70.9359 179.8007 0086071 260.8997  98.2393 14.42319183872615
SL-16 DEB
1 39901U 93016CB  20016.71311301  .00001000  00000-0  51281-3 0  9998
2 39901  70.9735  37.1301 0158660 274.3980  83.9028 14.11561269710542
SL-16 DEB
1 39902U 93016CC  20015.14502609 -.00000015  00000-0  27156-4 0  9999
2 39902  71.0013 191.2083 0194254 249.4514 229.1068 13.73570799880314
SL-16 DEB
1 39903U 93016CD  20005.72266378  .00000059  00000-0  82807-4 0  9994
2 39903  70.9892 171.5200 0137144   2.6800   9.0598 13.86185467843794
SL-16 DEB
1 39905U 93016CF  20012.70710828  .00000801  00000-0  37725-3 0  9999
2 39905  70.9591 129.4897 0123507 142.1845 288.1792 14.18962041861459
SL-16 DEB
1 39906U 93016CG  20015.16970057 +.00001343 +00000-0 +59974-3 0  9997
2 39906 070.9723 202.5631 0126544 137.4151 223.6873 14.20273629290288
SL-16 DEB
1 39907U 93016CH  20016.55309636  .00000085  00000-0  10223-3 0  9997
2 39907  70.9952 128.8641 0133754 331.4901  27.8934 13.87646438311486
SL-16 DEB
1 39908U 93016CJ  20015.96169868 +.00000105 +00000-0 +68501-4 0  9999
2 39908 071.0052 102.8769 0008508 022.4048 150.9546 14.22897467291620
SL-16 DEB
1 39910U 93016CL  20012.50855922  .00004015  00000-0  60108-3 0  9990
2 39910  70.9923 293.4587 0010589 267.5936  92.4006 14.75274633313036
SL-16 DEB
1 39911U 93016CM  20008.36072238  .00000001  00000-0  42088-4 0  9990
2 39911  71.0001 256.0517 0202004 307.9432  50.3561 13.72177425832592
PEGASUS DEB
1 39912U 94029AFK 20016.80263627  .00004657  00000-0  24804-3 0  9994
2 39912  81.3492 157.0601 0061060 201.8153 158.0474 15.13362244852214
PEGASUS DEB
1 39913U 94029AFL 20013.79572950  .00000204  00000-0  65895-4 0  9992
2 39913  81.5726  40.8995 0590675 144.7031 219.4771 13.65550631794728
PEGASUS DEB
1 39914U 94029AFM 20015.94980295 +.00000827 +00000-0 +21151-3 0  9994
2 39914 081.3354 095.8646 0434174 005.4656 355.1026 14.05480278287636
PEGASUS DEB
1 39915U 94029AFN 20016.16774899  .00001486  00000-0  51074-4 0  9991
2 39915  82.0037  91.2990 0105201 199.1042 160.6237 15.24023187947091
PEGASUS DEB
1 39916U 94029AFP 20016.87100295  .00000753  00000-0  10113-3 0  9997
2 39916  81.5831  66.5662 0185191 125.0637  47.3349 14.66662802328123
PEGASUS DEB
1 39917U 94029AFQ 20016.44666492  .00000529  00000-0  19484-3 0  9998
2 39917  82.1366  79.4420 0645158 338.0191  19.4376 13.54279785304566
PEGASUS DEB
1 39919U 94029AFS 20014.69074261  .00000285  00000-0  60935-4 0  9999
2 39919  81.8548 150.1252 0296601 123.5712 239.4171 14.31148718877397
PEGASUS DEB
1 39921U 94029AFU 20015.36129482 +.00000361 +00000-0 +10803-3 0  9996
2 39921 081.5414 251.0979 0417912 150.9306 211.5849 13.99977341286650
PEGASUS DEB
1 39922U 94029AFV 20016.36487616  .00000267  00000-0  37556-4 0  9994
2 39922  81.5974 240.4443 0172872 193.5829 166.0694 14.64071864892884
PEGASUS DEB
1 39923U 94029AFW 20013.17746146 -.00000723  00000-0 -30203-3 0  9997
2 39923  82.1549 323.5953 0607236 257.8947  95.3571 13.57298646284019
PEGASUS DEB
1 39924U 94029AFX 20016.26870210 +.00000183 +00000-0 +22863-4 0  9993
2 39924 081.8599 347.9468 0136915 229.2657 129.6598 14.70844620301277
PEGASUS DEB
1 39925U 94029AFY 20015.97332014  .00003514  00000-0  21527-3 0  9992
2 39925  81.4929 104.0135 0090905 167.7239 192.6232 15.06423891849437
PEGASUS DEB
1 39926U 94029AFZ 20015.93810322 -.00000036  00000-0 -15931-4 0  9993
2 39926  81.8440 266.5561 0319766 198.1294 172.4751 14.17367188833886
PEGASUS DEB
1 39927U 94029AGA 20016.07541148 +.00000417 +00000-0 +39337-4 0  9994
2 39927 081.8279 147.1820 0075683 093.6684 267.3191 14.89076770304853
PEGASUS DEB
1 39928U 94029AGB 20016.24891128 +.00000882 +00000-0 +16677-3 0  9997
2 39928 081.0290 209.9933 0291918 067.8712 295.3184 14.39486209294260
PEGASUS DEB
1 39929U 94029AGC 20016.37318197  .00000447  00000-0  93855-4 0  9993
2 39929  81.9500 243.0909 0295429  66.1873 296.9985 14.33391772321448
PEGASUS DEB
1 39930U 94029AGD 20012.54247237 +.00000904 +00000-0 +70395-4 0  9998
2 39930 081.5699 306.1582 0102757 113.1057 248.1033 14.95902680305631
PEGASUS DEB
1 39932U 94029AGF 20015.34773653 +.00000097 +00000-0 +20923-4 0  9992
2 39932 081.8193 237.1093 0329510 181.5979 178.4183 14.20132823290833
COSMOS 1275 DEB
1 39935U 81053MV  20016.72694683  .00000260  00000-0  18777-3 0  9991
2 39935  82.8267 182.7349 0036011  36.3627 335.6974 13.92825921312472
COSMOS 1275 DEB
1 39936U 81053MW  20015.98440424 +.00000240 +00000-0 +19538-3 0  9995
2 39936 083.1488 120.3579 0062197 051.3419 309.3285 13.84827181273688
COSMOS 1275 DEB
1 39938U 81053MY  20015.62786769  .00000272  00000-0  30520-3 0  9992
2 39938  83.0732 353.7564 0139648 313.0049  45.9465 13.63911340305913
COSMOS 1275 DEB
1 39939U 81053MZ  20014.43541513  .00000071  00000-0  57185-4 0  9991
2 39939  82.8199  65.7736 0071656 219.7650 139.8242 13.75785337782949
COSMOS 1275 DEB
1 39941U 81053NB  20013.90436679 +.00000412 +00000-0 +37516-3 0  9995
2 39941 083.0220 082.7970 0101696 324.1914 035.2453 13.78992946283231
COSMOS 1275 DEB
1 39942U 81053NC  20016.47984200  .00000299  00000-0  22359-3 0  9991
2 39942  83.1765  90.0998 0048780  66.0688 294.5576 13.90845500803975
COSMOS 1275 DEB
1 39943U 81053ND  20015.37723481 +.00000404 +00000-0 +50546-3 0  9999
2 39943 083.0662 066.4829 0147943 301.7893 069.1399 13.57833947277912
COSMOS 1275 DEB
1 39944U 81053NE  20015.29855403 +.00001201 +00000-0 +27322-3 0  9993
2 39944 082.8339 030.9117 0020640 209.4376 150.5663 14.55130205297132
COSMOS 1275 DEB
1 39945U 81053NF  20016.64054513  .00000105  00000-0  87005-4 0  9994
2 39945  82.9545 155.6371 0040818 107.2695 264.8431 13.78977690869709
COSMOS 1275 DEB
1 39946U 81053NG  20013.54909621 +.00000110 +00000-0 +90310-4 0  9999
2 39946 082.9552 127.6719 0034401 020.5304 339.7228 13.80063027602207
COSMOS 1275 DEB
1 39947U 81053NH  20015.81627396 +.00000202 +00000-0 +22328-3 0  9993
2 39947 083.0132 224.6478 0121784 209.3490 162.3982 13.64170697279401
COSMOS 1275 DEB
1 39948U 81053NJ  20016.06648823 +.00000518 +00000-0 +67275-3 0  9990
2 39948 083.0639 136.4979 0198740 250.9478 286.8923 13.52710975276853
COSMOS 1275 DEB
1 39949U 81053NK  20016.59881578  .00000940  00000-0  77489-3 0  9992
2 39949  82.8312 323.0500 0039210 131.0603 229.3959 13.87788183711004
COSMOS 1275 DEB
1 39950U 81053NL  20014.26352323  .00000952  00000-0  92807-3 0  9991
2 39950  83.1727   2.4920 0116392  63.2682 298.0331 13.75349682762225
COSMOS 1275 DEB
1 39951U 81053NM  20015.13132783 +.00000683 +00000-0 +43073-3 0  9997
2 39951 082.8290 262.3616 0063417 248.5909 110.8488 14.01984239287167
COSMOS 1275 DEB
1 39954U 81053NQ  20015.45218671  .00000806  00000-0  39617-3 0  9992
2 39954  82.9011 187.8071 0054570 156.7356 203.6312 14.15799316317070
COSMOS 1275 DEB
1 39955U 81053NR  20016.62938026 -.00000344  00000-0 -37595-3 0  9998
2 39955  83.4184 335.2215 0109373 183.9163 176.1150 13.72718569768647
COSMOS 1275 DEB
1 39956U 81053NS  20015.71592869 +.00000288 +00000-0 +29122-3 0  9991
2 39956 083.0217 185.1052 0130216 339.8246 030.6821 13.70508232280657
COSMOS 1275 DEB
1 39957U 81053NT  20012.13821937  .00000027  00000-0  13064-4 0  9996
2 39957  82.9263 157.2236 0037527  14.1936 109.2265 13.74282638777021
COSMOS 1275 DEB
1 39958U 81053NU  20011.56775125 +.00000435 +00000-0 +45790-3 0  9993
2 39958 083.0258 125.3661 0093003 149.2713 223.7716 13.70737347280637
COSMOS 1275 DEB
1 39959U 81053NV  20015.20637569 +.00000027 +00000-0 +11946-4 0  9992
2 39959 082.9602 191.5532 0038799 214.6816 145.1810 13.75075485823675
